{
  "type": "FeatureCollection",
  "features": [
    {
      "type": "Feature",
      "geometry": {
        "type": "Point",
        "coordinates": [
          2.132132217693652,
          48.797047160184704
        ]
      },
      "properties": {
        "unique_candidate_id": "U015",
        "candidate_id": "C017",
        "confidence": 0.7167117595672607,
        "distance_anfr_m": 164.09517330278024,
        "review_status": "plausible"
      }
    },
    {
      "type": "Feature",
      "geometry": {
        "type": "Point",
        "coordinates": [
          2.132417323628033,
          48.80093022515179
        ]
      },
      "properties": {
        "unique_candidate_id": "U011",
        "candidate_id": "C013",
        "confidence": 0.5002013444900513,
        "distance_anfr_m": 180.94962145399128,
        "review_status": "plausible"
      }
    },
    {
      "type": "Feature",
      "geometry": {
        "type": "Point",
        "coordinates": [
          2.125992930430129,
          48.801305957163656
        ]
      },
      "properties": {
        "unique_candidate_id": "U019",
        "candidate_id": "C024",
        "confidence": 0.4885269105434418,
        "distance_anfr_m": 155.6182564121764,
        "review_status": "plausible"
      }
    },
    {
      "type": "Feature",
      "geometry": {
        "type": "Point",
        "coordinates": [
          2.131190125910507,
          48.79449268639573
        ]
      },
      "properties": {
        "unique_candidate_id": "U006",
        "candidate_id": "C007",
        "confidence": 0.4537279605865478,
        "distance_anfr_m": 196.50426966969985,
        "review_status": "plausible"
      }
    },
    {
      "type": "Feature",
      "geometry": {
        "type": "Point",
        "coordinates": [
          2.1306601348987897,
          48.79944589372425
        ]
      },
      "properties": {
        "unique_candidate_id": "U012",
        "candidate_id": "C019",
        "confidence": 0.3996615409851074,
        "distance_anfr_m": 162.2329743406199,
        "review_status": "plausible"
      }
    },
    {
      "type": "Feature",
      "geometry": {
        "type": "Point",
        "coordinates": [
          2.13361906737191,
          48.801751084013695
        ]
      },
      "properties": {
        "unique_candidate_id": "U020",
        "candidate_id": "C026",
        "confidence": 0.3832046091556549,
        "distance_anfr_m": 150.49326768053797,
        "review_status": "plausible"
      }
    },
    {
      "type": "Feature",
      "geometry": {
        "type": "Point",
        "coordinates": [
          2.130317152045791,
          48.79434271919146
        ]
      },
      "properties": {
        "unique_candidate_id": "U002",
        "candidate_id": "C002",
        "confidence": 0.3292398452758789,
        "distance_anfr_m": 250.5388435086697,
        "review_status": "plausible"
      }
    },
    {
      "type": "Feature",
      "geometry": {
        "type": "Point",
        "coordinates": [
          2.1268531584610173,
          48.79667665845903
        ]
      },
      "properties": {
        "unique_candidate_id": "U013",
        "candidate_id": "C018",
        "confidence": 0.3012443780899048,
        "distance_anfr_m": 163.54170221472856,
        "review_status": "plausible"
      }
    },
    {
      "type": "Feature",
      "geometry": {
        "type": "Point",
        "coordinates": [
          2.129469843011975,
          48.79563899305822
        ]
      },
      "properties": {
        "unique_candidate_id": "U004",
        "candidate_id": "C005",
        "confidence": 0.2884598672389984,
        "distance_anfr_m": 210.5469468281359,
        "review_status": "plausible"
      }
    },
    {
      "type": "Feature",
      "geometry": {
        "type": "Point",
        "coordinates": [
          2.124497323811738,
          48.79628187164758
        ]
      },
      "properties": {
        "unique_candidate_id": "U009",
        "candidate_id": "C021",
        "confidence": 0.2341538816690445,
        "distance_anfr_m": 160.04951520392945,
        "review_status": "plausible"
      }
    },
    {
      "type": "Feature",
      "geometry": {
        "type": "Point",
        "coordinates": [
          2.12787686730735,
          48.7934949457029
        ]
      },
      "properties": {
        "unique_candidate_id": "U008",
        "candidate_id": "C010",
        "confidence": 0.2120320349931717,
        "distance_anfr_m": 188.0246713352876,
        "review_status": "plausible"
      }
    },
    {
      "type": "Feature",
      "geometry": {
        "type": "Point",
        "coordinates": [
          2.13574113291088,
          48.80117113905942
        ]
      },
      "properties": {
        "unique_candidate_id": "U016",
        "candidate_id": "C020",
        "confidence": 0.1708699911832809,
        "distance_anfr_m": 161.17772488141486,
        "review_status": "plausible"
      }
    },
    {
      "type": "Feature",
      "geometry": {
        "type": "Point",
        "coordinates": [
          2.1366569470592367,
          48.801110672950514
        ]
      },
      "properties": {
        "unique_candidate_id": "U005",
        "candidate_id": "C006",
        "confidence": 0.1681292951107025,
        "distance_anfr_m": 203.7457609993545,
        "review_status": "plausible"
      }
    },
    {
      "type": "Feature",
      "geometry": {
        "type": "Point",
        "coordinates": [
          2.132147770871597,
          48.79828562235258
        ]
      },
      "properties": {
        "unique_candidate_id": "U018",
        "candidate_id": "C023",
        "confidence": 0.1286014765501022,
        "distance_anfr_m": 158.29120370802485,
        "review_status": "plausible"
      }
    },
    {
      "type": "Feature",
      "geometry": {
        "type": "Point",
        "coordinates": [
          2.1265901159222267,
          48.79341025004257
        ]
      },
      "properties": {
        "unique_candidate_id": "U022",
        "candidate_id": "C028",
        "confidence": 0.1207625716924667,
        "distance_anfr_m": 150.0451651892845,
        "review_status": "plausible"
      }
    },
    {
      "type": "Feature",
      "geometry": {
        "type": "Point",
        "coordinates": [
          2.132074862945501,
          48.79929729837577
        ]
      },
      "properties": {
        "unique_candidate_id": "U007",
        "candidate_id": "C008",
        "confidence": 0.1206693947315216,
        "distance_anfr_m": 190.3345923415368,
        "review_status": "plausible"
      }
    },
    {
      "type": "Feature",
      "geometry": {
        "type": "Point",
        "coordinates": [
          2.127709054402658,
          48.79556869764888
        ]
      },
      "properties": {
        "unique_candidate_id": "U021",
        "candidate_id": "C027",
        "confidence": 0.1137395426630973,
        "distance_anfr_m": 150.19954016384875,
        "review_status": "plausible"
      }
    },
    {
      "type": "Feature",
      "geometry": {
        "type": "Point",
        "coordinates": [
          2.129709513137641,
          48.794710935021385
        ]
      },
      "properties": {
        "unique_candidate_id": "U001",
        "candidate_id": "C001",
        "confidence": 0.0978523716330528,
        "distance_anfr_m": 263.5886066714844,
        "review_status": "plausible"
      }
    },
    {
      "type": "Feature",
      "geometry": {
        "type": "Point",
        "coordinates": [
          2.127517579974665,
          48.79591423688957
        ]
      },
      "properties": {
        "unique_candidate_id": "U014",
        "candidate_id": "C016",
        "confidence": 0.0917402580380439,
        "distance_anfr_m": 167.8760233609196,
        "review_status": "plausible"
      }
    },
    {
      "type": "Feature",
      "geometry": {
        "type": "Point",
        "coordinates": [
          2.128416870436922,
          48.79413586349145
        ]
      },
      "properties": {
        "unique_candidate_id": "U010",
        "candidate_id": "C012",
        "confidence": 0.0812201052904129,
        "distance_anfr_m": 181.0472997339804,
        "review_status": "plausible"
      }
    },
    {
      "type": "Feature",
      "geometry": {
        "type": "Point",
        "coordinates": [
          2.13034426124068,
          48.79501812657819
        ]
      },
      "properties": {
        "unique_candidate_id": "U003",
        "candidate_id": "C004",
        "confidence": 0.0730527117848396,
        "distance_anfr_m": 226.95808266759803,
        "review_status": "plausible"
      }
    }
  ]
}